OBJECT_NAME,OBJECT_ID,EPOCH,MEAN_MOTION,ECCENTRICITY,INCLINATION,RA_OF_ASC_NODE,ARG_OF_PERICENTER,MEAN_ANOMALY,EPHEMERIS_TYPE,CLASSIFICATION_TYPE,NORAD_CAT_ID,ELEMENT_SET_NO,REV_AT_EPOCH,BSTAR,MEAN_MOTION_DOT,MEAN_MOTION_DDOT
STARLINK-34655,2025-161N,2026-07-14T04:00:01.998720,15.34331792,.0001914,53.1602,66.9633,41.8138,214.2111,0,U,65027,999,570,.16489E-2,.55629E-3,0
STARLINK-34807,2025-161P,2026-07-13T22:44:31.147872,15.34363717,.0001765,53.1588,66.1065,39.0751,321.0378,0,U,65028,999,5468,.41947E-3,.13806E-3,0
STARLINK-34731,2025-161Q,2026-07-13T22:14:12.254208,15.34368209,.0000987,53.1574,65.9760,70.6710,289.4399,0,U,65029,999,5468,.36814E-4,.867E-5,0
STARLINK-34614,2025-161R,2026-07-13T22:20:07.987200,15.30198129,.000095,53.1571,68.1311,72.8970,287.2135,0,U,65030,999,5465,.28662E-3,.8139E-4,0
STARLINK-34677,2025-161S,2026-07-13T22:14:03.102720,15.30197144,.0001047,53.1581,68.1077,98.3104,261.8015,0,U,65031,999,5355,.24971E-3,.7043E-4,0
STARLINK-34656,2025-161T,2026-07-14T04:00:01.998720,15.33533403,.0000963,53.1598,66.9307,63.4926,209.9544,0,U,65032,999,585,.61639E-3,.19943E-3,0
STARLINK-34610,2025-161V,2026-07-13T21:51:15.578208,15.30195563,.0001374,53.1617,68.0081,111.1161,248.9986,0,U,65034,999,5355,.22927E-3,.6436E-4,0
STARLINK-34286,2025-161W,2026-07-14T01:30:52.088832,15.34404116,.0000983,53.1577,65.4103,58.2741,301.8358,0,U,65035,999,5360,.34647E-3,.11349E-3,0
STARLINK-34770,2025-161X,2026-07-13T22:06:27.117216,15.30198604,.000102,53.1578,68.0581,63.7869,296.3236,0,U,65036,999,5355,.29803E-3,.8477E-4,0
STARLINK-34776,2025-161Y,2026-07-13T22:00:22.409856,15.30206457,.000117,53.1600,68.0460,118.9791,241.1327,0,U,65037,999,5355,.39776E-3,.11442E-3,0
STARLINK-34827,2025-161Z,2026-07-13T21:01:34.504320,15.34391242,.0001312,53.1579,66.3669,68.7701,291.3442,0,U,65038,999,5357,-.27911E-3,-.9792E-4,0
STARLINK-34721,2025-161AA,2026-07-13T22:30:36.339840,15.30198604,.0001124,53.1580,67.4587,103.3643,256.7483,0,U,65039,999,5356,.35192E-3,.10077E-3,0
STARLINK-34819,2025-161AB,2026-07-14T04:00:01.998720,15.34390021,.0001258,53.1604,66.8914,87.4540,203.3999,0,U,65040,999,580,.60744E-3,.20196E-3,0
STARLINK-34820,2025-161AC,2026-07-13T22:11:09.627936,15.34389770,.0001145,53.1589,65.9646,85.6914,274.4219,0,U,65041,999,5358,.62318E-3,.2073E-3,0
STARLINK-34824,2025-161AD,2026-07-13T22:38:25.467648,15.34407023,.0001017,53.1590,66.0794,93.2122,266.8997,0,U,65042,999,5358,.4918E-3,.1628E-3,0
HULIANWANG DIGUI-40,2025-162A,2026-07-14T03:43:59.266848,13.29327272,.0000297,49.9978,169.2083,307.8241,52.2604,0,U,65043,999,4693,.20975E-4,-.114E-5,0
HULIANWANG DIGUI-41,2025-162B,2026-07-14T03:31:58.926720,13.29326867,.0000262,49.9988,169.1922,315.8736,44.2115,0,U,65044,999,4694,.32301E-4,-.109E-5,0
HULIANWANG DIGUI-42,2025-162C,2026-07-14T03:19:51.604608,13.29327513,.0000282,49.9953,169.0524,307.9273,52.1574,0,U,65045,999,4694,.32949E-4,-.109E-5,0
HULIANWANG DIGUI-43,2025-162D,2026-07-14T03:07:52.950144,13.29326110,.0000335,49.9970,169.0579,305.4811,54.6030,0,U,65046,999,4694,.28618E-4,-.111E-5,0
HULIANWANG DIGUI-44,2025-162E,2026-07-14T02:55:41.124000,13.29318596,.0001428,49.9998,169.0878,326.0407,34.0374,0,U,65047,999,4695,.27402E-4,-.111E-5,0
HULIANWANG DIGUI-45,2025-162F,2026-07-14T04:32:06.501696,13.29327200,.0000261,50.0027,168.8587,311.9967,48.0882,0,U,65048,999,4695,.25607E-4,-.112E-5,0
HULIANWANG DIGUI-46,2025-162G,2026-07-14T02:31:51.210048,13.29327003,.0000246,50.0045,169.1350,306.6781,53.4068,0,U,65049,999,4694,.1841E-4,-.115E-5,0
HULIANWANG DIGUI-47,2025-162H,2026-07-14T04:08:05.106048,13.29326578,.0000268,50.0009,168.7250,297.3722,62.7123,0,U,65050,999,4695,.72119E-5,-.121E-5,0
HULIANWANG DIGUI-48,2025-162J,2026-07-14T03:56:03.012000,13.29327303,.0000278,50.0020,168.7085,308.6380,51.4467,0,U,65051,999,4695,.7983E-5,-.12E-5,0
NISAR,2025-163A,2026-07-14T03:32:38.459040,14.42505574,.0001218,98.4057,22.4192,90.2739,269.8591,0,U,65053,999,5027,.14496E-4,.5E-7,0
PRSC-S1,2025-164A,2026-07-14T04:17:35.308032,15.06630085,.0006534,41.1297,135.7708,191.4390,168.6276,0,U,65055,999,5250,.16173E-3,.2262E-4,0
STARLINK-34788,2025-165A,2026-07-14T04:22:42.612096,15.05640348,.0001194,97.2831,269.8713,183.4795,176.6425,0,U,65056,999,5382,-.20111E-3,-.2956E-4,0
STARLINK-34745,2025-165B,2026-07-14T04:50:38.133600,15.05672751,.0001273,97.2851,269.8478,131.2765,228.8572,0,U,65057,999,5382,.23756E-3,.3375E-4,0
STARLINK-34779,2025-165C,2026-07-14T04:18:45.285120,15.05675253,.000098,97.2848,269.8746,106.7214,253.4121,0,U,65058,999,5382,.52334E-3,.7507E-4,0
STARLINK-34803,2025-165D,2026-07-14T04:10:44.491584,15.05677894,.0001555,97.2822,269.8902,123.2064,236.9313,0,U,65059,999,5382,.32681E-3,.4666E-4,0
STARLINK-34717,2025-165E,2026-07-14T03:54:48.688128,15.05660143,.0000773,97.2834,269.8986,135.4435,224.6855,0,U,65060,999,5382,.13855E-3,.1944E-4,0
STARLINK-34750,2025-165F,2026-07-14T03:34:52.633056,15.05657561,.000103,97.2837,269.9176,148.2669,211.8620,0,U,65061,999,5382,.81903E-4,.1126E-4,0
STARLINK-34708,2025-165G,2026-07-14T04:26:42.473184,15.05655183,.0001066,97.2834,269.8712,146.9621,213.1673,0,U,65062,999,5382,.46142E-4,.61E-5,0
STARLINK-34798,2025-165H,2026-07-14T03:46:50.179008,15.05659146,.0001493,97.2853,269.9108,126.1505,233.9861,0,U,65063,999,5382,.57717E-4,.777E-5,0
STARLINK-34793,2025-165J,2026-07-14T03:58:47.787168,15.05660530,.0000941,97.2840,269.8963,129.2271,230.9040,0,U,65064,999,5382,.12735E-3,.1782E-4,0
STARLINK-34806,2025-165K,2026-07-14T03:22:54.448608,15.05658317,.0001931,97.2851,269.7786,111.7606,248.3828,0,U,65065,999,5381,.13476E-3,.1889E-4,0
STARLINK-34739,2025-165L,2026-07-14T03:42:50.966784,15.05655754,.0001271,97.2851,269.9134,113.3944,246.7418,0,U,65066,999,5382,-.26494E-4,-.439E-5,0
STARLINK-34802,2025-165M,2026-07-14T04:30:41.713056,15.05658220,.0000568,97.2841,269.8657,104.0116,256.1174,0,U,65067,999,5382,.10964E-3,.1526E-4,0
STARLINK-34810,2025-165N,2026-07-14T04:42:39.633984,15.05656759,.0001202,97.2847,269.8560,95.4476,264.6889,0,U,65068,999,5382,.10844E-3,.1509E-4,0
STARLINK-34809,2025-165P,2026-07-14T04:34:41.174112,15.05658091,.0002119,97.2850,269.8625,123.8383,236.3046,0,U,65069,999,5382,.11614E-3,.162E-4,0
STARLINK-34794,2025-165Q,2026-07-14T03:18:55.175040,15.05652789,.0001409,97.2850,269.7813,111.6031,248.5347,0,U,65070,999,5381,.51455E-5,.18E-6,0
STARLINK-34805,2025-165R,2026-07-14T04:46:38.930880,15.05659665,.000208,97.2842,269.8544,77.6553,282.4908,0,U,65071,999,5382,-.8197E-4,-.1239E-4,0
STARLINK-34735,2025-165S,2026-07-14T04:06:46.285920,15.05661058,.0000685,97.2823,269.8867,110.7994,249.3307,0,U,65072,999,5382,.15633E-3,.2201E-4,0
STARLINK-34781,2025-165T,2026-07-14T03:30:53.598816,15.05658722,.0002221,97.2850,269.9234,140.9807,219.1581,0,U,65073,999,5382,.14994E-3,.2108E-4,0
STARLINK-34780,2025-165U,2026-07-14T04:38:40.458048,15.05656929,.0002222,97.2842,269.8599,125.7961,234.3473,0,U,65074,999,5382,.99459E-4,.1379E-4,0
STARLINK-34771,2025-167A,2026-07-14T02:57:16.456896,15.30208346,.0001193,53.1557,156.8638,101.6941,258.4194,0,U,65078,999,5287,.51231E-3,.14848E-3,0
STARLINK-34634,2025-167B,2026-07-14T03:34:22.215072,15.34359485,.0001411,53.1601,154.8997,98.3797,261.7366,0,U,65079,999,5290,.18294E-3,.5802E-4,0
STARLINK-34267,2025-167C,2026-07-14T03:37:23.278368,15.34395828,.0001437,53.1560,154.9101,130.9854,229.1273,0,U,65080,999,5412,.44379E-3,.14645E-3,0
STARLINK-34561,2025-167D,2026-07-14T04:20:41.308224,15.30194180,.0001039,53.1572,156.5116,92.8111,267.3009,0,U,65081,999,5413,.19323E-3,.5367E-4,0
STARLINK-34626,2025-167E,2026-07-14T03:39:43.477920,15.34391513,.0001168,53.1582,153.5251,91.9694,268.1443,0,U,65082,999,5292,.41167E-3,.13554E-3,0
STARLINK-34247,2025-167F,2026-07-14T04:40:25.840992,15.30182712,.0001134,53.1558,156.6005,83.9741,276.1389,0,U,65083,999,5288,.56003E-4,.1299E-4,0
STARLINK-34601,2025-167G,2026-07-14T03:36:40.920768,15.34389430,.0001924,53.1546,153.4275,49.3834,310.7335,0,U,65084,999,5291,.80117E-4,.233E-4,0
STARLINK-34822,2025-167J,2026-07-14T03:10:21.443232,15.30215152,.0001513,53.1565,159.7098,105.8953,254.2215,0,U,65086,999,5283,.32881E-3,.9396E-4,0
STARLINK-34686,2025-167K,2026-07-14T03:05:46.087296,15.30179349,.0000906,53.1547,159.6921,74.1800,285.9300,0,U,65087,999,5283,-.10589E-3,-.3491E-4,0
STARLINK-34594,2025-167L,2026-07-14T04:35:16.663776,15.30200176,.0001597,53.1562,159.3704,82.1515,277.9667,0,U,65088,999,5284,.19483E-3,.5415E-4,0
STARLINK-34665,2025-167M,2026-07-14T04:30:43.709760,15.30221099,.0001318,53.1586,159.3480,99.7008,260.4142,0,U,65089,999,5284,.32083E-3,.9161E-4,0
STARLINK-34673,2025-167N,2026-07-14T04:26:11.123808,15.30176512,.0001068,53.1573,159.3279,46.4439,313.6650,0,U,65090,999,5284,.94889E-3,.27829E-3,0
STARLINK-34648,2025-167P,2026-07-14T02:08:56.249088,15.34405208,.0001305,53.1579,153.7560,115.8103,244.3034,0,U,65091,999,5291,.41229E-3,.13581E-3,0
STARLINK-34640,2025-167Q,2026-07-14T04:20:05.116992,15.30194265,.0001175,53.1582,159.2972,67.9262,292.1863,0,U,65092,999,5284,.49801E-3,.14417E-3,0
STARLINK-34266,2025-167R,2026-07-14T03:27:35.315136,15.34394194,.0001117,53.1595,153.3858,99.6761,260.4368,0,U,65093,999,5292,.37812E-3,.12418E-3,0
STARLINK-34769,2025-167S,2026-07-14T03:54:51.364800,15.34391277,.0001136,53.1574,153.5006,65.3793,294.7328,0,U,65094,999,5291,.32372E-3,.10574E-3,0
STARLINK-34768,2025-167T,2026-07-14T03:51:49.535136,15.34394858,.000121,53.1587,153.4909,83.0830,277.0310,0,U,65095,999,5292,.29907E-3,.974E-4,0
STARLINK-34759,2025-167U,2026-07-14T03:48:47.643264,15.34398124,.0001323,53.1574,153.4738,94.7313,265.3841,0,U,65096,999,5292,.23755E-3,.7658E-4,0
STARLINK-34741,2025-167V,2026-07-14T03:45:46.251648,15.34387952,.0001306,53.1584,153.4605,67.0160,293.0980,0,U,65097,999,5292,.37921E-3,.12452E-3,0
STARLINK-34764,2025-167W,2026-07-14T03:35:08.505600,15.34408711,.0001244,53.1585,156.9773,92.3548,267.7597,0,U,65098,999,5287,.60008E-3,.19958E-3,0
